#dP2024  7  8  6  0  0.00000000      96 __u+U IGS20 EXT  IAC
## 2322 108000.00000000   900.00000000 60499 0.2500000000000
+   54   G02G03G04G05G06G07G08G09G10G11G12G13G14G15G16G17G18
+        G19G20G21G22G23G24G25G26G27G28G29G30G31G32R01R02R03
+        R04R05R07R08R09R11R12R13R14R15R16R17R18R19R20R21R22
+        R24R25R26  0  0  0  0  0  0  0  0  0  0  0  0  0  0
+          0  0  0  0  0  0  0  0  0  0  0  0  0  0  0  0  0
++         8  8  7  8  9  8  9  9  8  7  8  9  6  9  8  8  9
++         8  9  8  8  7  8  8  9  9  8  9  8  9  9  8  8  8
++         7  8  9  7  9  8  7  8  8  7  7  9  9 10  8  9  9
++         8  8  9  0  0  0  0  0  0  0  0  0  0  0  0  0  0
++         0  0  0  0  0  0  0  0  0  0  0  0  0  0  0  0  0
%c M  cc GPS ccc cccc cccc cccc cccc ccccc ccccc ccccc ccccc
%c cc cc ccc ccc cccc cccc cccc cccc ccccc ccccc ccccc ccccc
%f  0.0000000  0.000000000  0.00000000000  0.000000000000000
%f  0.0000000  0.000000000  0.00000000000  0.000000000000000
%i    0    0    0    0      0      0      0      0         0
%i    0    0    0    0      0      0      0      0         0
/* IAC                                ULTRA-RAPID PREDICTION
/* S/V CLOCKS ARE ALIGNED TO GNSS TIME                      
/* G:C1WC2W R:C1PC2P E:C1XC5X C:C2IC6I J:C1CC2S             
/* PCV:IGS20_2317 OL/AL:FES2004  NONE     YN ORB:CoN CLK:CoN
*  2024 07 08  9 30  0.00000000
PG02  14190.391174 -18020.518794  13597.029332   -403.101069
PG03  19261.293292 -12643.889153 -13269.120798    448.861373
PG04   9537.211565 -12018.501624 -21653.246040    399.430261
PG05 -26079.277797   4867.416274  -2185.951485   -179.019297
PG06  -7675.004175 -16319.952747 -19398.599203    174.052497
PG07   4639.053062 -25432.508402   5409.190133    -74.415225
PG08  17592.566610  -1816.917328  19827.553498    265.160273
PG09  -2030.616072 -20133.968995 -17259.867567    264.870507
PG10  12408.854321  11601.543898  20712.169872    -60.886436
PG11 -15149.223957  -2396.890597 -21655.668904   -700.914669
PG12 -21674.830437  10635.752386 -11292.577866   -520.540987
PG13 -18873.898036  -8088.094807  16763.845094    663.162061
PG14  -8172.707820 -14048.951417  21078.967053    443.837703
PG15 -17188.236372   4158.288518  19365.998324    178.740681
PG16  26339.233758    841.306101  -5200.292907   -242.601282
PG17 -12248.491554 -22770.924519   6101.951643    681.578381
PG18  -5112.663033  25326.713758   5668.811278   -634.205477
PG19 -17243.878587 -20197.615925  -3641.121980    507.438281
PG20 -23634.744680    131.229535 -11899.559883    372.991762
PG21  15556.227478 -12470.560990  17434.104312    110.324595
PG22 -15705.388202 -11345.008836  18455.716310    -37.021822
PG23  -1054.945619  15197.129380  21757.067143    268.805384
PG24 -14555.969370  16686.640726  13936.238759   -482.145763
PG25 -11956.988646  15713.626887 -17979.148225    498.292869
PG26  20097.653506   6946.076765 -16287.392044    123.720647
PG27  20903.392597   9466.898762  13438.342358    -30.580739
PG28   7284.960156  18414.362510 -17709.461503   -322.358178
PG29  -2499.751933  18378.294176 -19011.777118   -590.591660
PG30  -3495.179325 -22126.458783  14214.074728   -361.393459
PG31  13761.526558   7233.721871 -21730.680113   -226.917689
PG32  15195.348525  21540.677191   4249.939732   -613.202724
PR01  -5906.558163   9258.031758  23022.892093     90.731996
PR02  10871.670429  15083.703745  17538.985564    -23.622382
PR03  22112.028876  12628.550230   1994.308460    103.437933
PR04  20816.826170   3703.047385 -14250.559960    244.436642
PR05   8562.858600  -7362.233554 -22864.006027    134.241910
PR07 -22287.001611 -12300.548303  -1131.426763     86.208351
PR08 -20736.403880  -3213.240768  14539.045522     -5.708654
PR09   1763.978228 -13984.735253  21263.215125    196.516149
PR11 -21743.893259   8157.473241  10589.402727     18.856078
PR12 -17520.676500  16289.797790  -8807.090137     42.199744
PR13  -4759.234293  14800.395834 -20229.017452    -49.102693
PR14  13740.337957   3337.098273 -21205.730281     26.671748
PR15  22084.585526  -9025.461988  -8986.549044     78.084731
PR16  17564.513161 -16298.371992   8707.286760     27.166566
PR17   9197.491258  14362.950493  18951.159952    102.735954
PR18  10381.928800  -3047.319877  23106.744768    150.896172
PR19   7621.160343 -17641.532274  16774.471272   -283.121220
PR20  -1163.086690 -25271.893451  -3121.420733   -115.783740
PR21  -8902.002997 -14877.533068 -18729.314082   -115.767309
PR22 -10767.053631   4154.718716 -22725.984039     91.793363
PR24   2627.761371  25097.286377   3658.019387    -62.931686
PR25  -8958.273402 -14488.332690 -18995.293973    -95.330963
PR26 -21378.126939  -4029.713580  13359.382561      3.590434
*  2024 07 08  9 45  0.00000000
PG02  14027.413972 -16403.173006  15747.097029   -403.094537
PG03  20619.364516 -12786.462557 -10827.927466    448.876386
PG04  11184.558971 -10150.413335 -21832.512764    399.437331
PG05 -25760.854024   4556.978145  -5020.043249   -179.020495
PG06  -6922.594151 -18324.211273 -17824.112619    174.032362
PG07   5057.737891 -25730.287114   2597.492445    -74.407898
PG08  19074.098365   -177.722757  18542.594111    265.175334
PG09   -490.994314 -18768.113558 -18850.910571    264.883909
PG10  10112.545346  12167.005244  21597.341235    -60.894859
PG11 -14323.615983  -4748.278527 -21833.830726   -700.921052
PG12 -22807.677955  10590.790556  -8751.089015   -520.543848
PG13 -19798.614596  -9673.746710  14785.533701    663.164340
PG14  -5799.094620 -14570.727876  21488.526172    443.845782
PG15 -18855.200190   2652.117127  18086.949384    178.744498
PG16  25672.666149   1140.912440  -7901.751984   -242.591691
PG17 -11562.895206 -22291.416598   8811.222933    681.571990
PG18  -5480.859661  25718.664174   2828.838704   -634.209261
PG19 -17222.512614 -20505.246526   -810.107615    507.443170
PG20 -22337.975960   -671.607245 -14171.738596    372.991405
PG21  15316.623115 -10431.145320  19044.965565    110.322347
PG22 -13619.926802 -11760.194871  19857.669652    -37.025992
PG23  -3434.943360  15757.487797  21084.035210    268.813470
PG24 -14462.990023  14870.364511  15927.519823   -482.147391
PG25 -13855.399884  15998.795354 -16224.809151    498.293243
PG26  18313.733352   7701.311497 -17947.485628    123.714558
PG27  21750.422907  10636.127215  11101.627695    -30.581658
PG28   6625.641026  20226.156544 -15898.239879   -322.372672
PG29  -3979.465164  16693.687109 -20285.371743   -590.589962
PG30  -2796.730519 -23473.296215  11988.569411   -361.387667
PG31  12949.458988   9517.014088 -21307.320422   -226.917447
PG32  14608.810476  21248.717335   7001.614841   -613.201082
PR01  -8485.989913   8123.634604  22643.090845     90.733022
PR02   8882.060165  13978.639429  19468.040746    -23.622589
PR03  21791.539487  12289.813114   5171.221904    103.438443
PR04  22316.315954   4277.998794 -11575.379374    244.438040
PR05  11069.973857  -6159.135874 -22133.726052    134.242368
PR07 -22047.958099 -12007.666875  -4331.815488     86.209031
PR08 -22256.003291  -3799.386954  11898.183622     -5.709057
PR09   3788.176245 -15509.927202  19888.312956    196.518067
PR11 -20465.232663   7415.779412  13330.251432     18.854909
PR12 -18194.201841  16904.840651  -5768.188034     42.200106
PR13  -6669.459381  16236.093660 -18514.979596    -49.103021
PR14  11524.991233   4850.318805 -22210.621420     26.671766
PR15  20959.438928  -8386.673802 -11839.827432     78.084406
PR16  18209.138314 -16920.978083   5650.968981     27.166921
PR17   9467.355998  16565.383492  16906.979713    102.738989
PR18  10536.392926   -190.633545  23240.097792    150.897921
PR19   7535.938498 -15435.751592  18856.811587   -283.122566
PR20  -1386.054177 -25452.757633    120.123632   -115.784219
PR21  -9164.854988 -17048.374034 -16637.650073   -115.770182
PR22 -10842.022361   1326.751742 -23028.437849     91.787933
PR24   2796.115910  25338.823469    454.459169    -62.933033
PR25  -9116.780033 -16705.035491 -16996.935924    -95.332856
PR26 -22771.940377  -4534.986186  10609.134190      3.624305
EOF
